<?xml version="1.0" encoding="UTF-8"?>
<ndm xmlns:xsi="http://www.w3.org/2001/XMLSchema-instance" xsi:noNamespaceSchemaLocation="https://sanaregistry.org/r/ndmxml_unqualified/ndmxml-2.0.0-master-2.0.xsd">
<omm id="CCSDS_OMM_VERS" version="2.0">
<header><CREATION_DATE/><ORIGINATOR/></header><body><segment><metadata><OBJECT_NAME>ORBCOMM FM103 [+]</OBJECT_NAME><OBJECT_ID>2014-040F</OBJECT_ID><CENTER_NAME>EARTH</CENTER_NAME><REF_FRAME>TEME</REF_FRAME><TIME_SYSTEM>UTC</TIME_SYSTEM><MEAN_ELEMENT_THEORY>SGP4</MEAN_ELEMENT_THEORY></metadata><data><meanElements><EPOCH>2023-12-03T11:12:20.490912</EPOCH><MEAN_MOTION>14.56109986</MEAN_MOTION><ECCENTRICITY>.0002432</ECCENTRICITY><INCLINATION>47.0041</INCLINATION><RA_OF_ASC_NODE>146.0760</RA_OF_ASC_NODE><ARG_OF_PERICENTER>230.3969</ARG_OF_PERICENTER><MEAN_ANOMALY>129.6701</MEAN_ANOMALY></meanElements><tleParameters><EPHEMERIS_TYPE>0</EPHEMERIS_TYPE><CLASSIFICATION_TYPE>U</CLASSIFICATION_TYPE><NORAD_CAT_ID>40091</NORAD_CAT_ID><ELEMENT_SET_NO>999</ELEMENT_SET_NO><REV_AT_EPOCH>48218</REV_AT_EPOCH><BSTAR>.37845E-3</BSTAR><MEAN_MOTION_DOT>.1518E-4</MEAN_MOTION_DOT><MEAN_MOTION_DDOT>0</MEAN_MOTION_DDOT></tleParameters></data></segment></body></omm>
<omm id="CCSDS_OMM_VERS" version="2.0">
<header><CREATION_DATE/><ORIGINATOR/></header><body><segment><metadata><OBJECT_NAME>ORBCOMM FM114 [+]</OBJECT_NAME><OBJECT_ID>2015-081A</OBJECT_ID><CENTER_NAME>EARTH</CENTER_NAME><REF_FRAME>TEME</REF_FRAME><TIME_SYSTEM>UTC</TIME_SYSTEM><MEAN_ELEMENT_THEORY>SGP4</MEAN_ELEMENT_THEORY></metadata><data><meanElements><EPOCH>2023-12-03T13:41:30.003360</EPOCH><MEAN_MOTION>14.56128523</MEAN_MOTION><ECCENTRICITY>.0002661</ECCENTRICITY><INCLINATION>47.0032</INCLINATION><RA_OF_ASC_NODE>54.9274</RA_OF_ASC_NODE><ARG_OF_PERICENTER>280.1628</ARG_OF_PERICENTER><MEAN_ANOMALY>79.8956</MEAN_ANOMALY></meanElements><tleParameters><EPHEMERIS_TYPE>0</EPHEMERIS_TYPE><CLASSIFICATION_TYPE>U</CLASSIFICATION_TYPE><NORAD_CAT_ID>41179</NORAD_CAT_ID><ELEMENT_SET_NO>999</ELEMENT_SET_NO><REV_AT_EPOCH>42256</REV_AT_EPOCH><BSTAR>.35937E-3</BSTAR><MEAN_MOTION_DOT>.1434E-4</MEAN_MOTION_DOT><MEAN_MOTION_DDOT>0</MEAN_MOTION_DDOT></tleParameters></data></segment></body></omm>
<omm id="CCSDS_OMM_VERS" version="2.0">
<header><CREATION_DATE/><ORIGINATOR/></header><body><segment><metadata><OBJECT_NAME>ORBCOMM FM119 [-]</OBJECT_NAME><OBJECT_ID>2015-081B</OBJECT_ID><CENTER_NAME>EARTH</CENTER_NAME><REF_FRAME>TEME</REF_FRAME><TIME_SYSTEM>UTC</TIME_SYSTEM><MEAN_ELEMENT_THEORY>SGP4</MEAN_ELEMENT_THEORY></metadata><data><meanElements><EPOCH>2023-12-03T07:58:40.471968</EPOCH><MEAN_MOTION>14.56107387</MEAN_MOTION><ECCENTRICITY>.0001928</ECCENTRICITY><INCLINATION>47.0024</INCLINATION><RA_OF_ASC_NODE>325.2403</RA_OF_ASC_NODE><ARG_OF_PERICENTER>330.5166</ARG_OF_PERICENTER><MEAN_ANOMALY>29.5610</MEAN_ANOMALY></meanElements><tleParameters><EPHEMERIS_TYPE>0</EPHEMERIS_TYPE><CLASSIFICATION_TYPE>U</CLASSIFICATION_TYPE><NORAD_CAT_ID>41180</NORAD_CAT_ID><ELEMENT_SET_NO>999</ELEMENT_SET_NO><REV_AT_EPOCH>42378</REV_AT_EPOCH><BSTAR>.3883E-3</BSTAR><MEAN_MOTION_DOT>.1562E-4</MEAN_MOTION_DOT><MEAN_MOTION_DDOT>0</MEAN_MOTION_DDOT></tleParameters></data></segment></body></omm>
<omm id="CCSDS_OMM_VERS" version="2.0">
<header><CREATION_DATE/><ORIGINATOR/></header><body><segment><metadata><OBJECT_NAME>ORBCOMM FM105 [-]</OBJECT_NAME><OBJECT_ID>2015-081C</OBJECT_ID><CENTER_NAME>EARTH</CENTER_NAME><REF_FRAME>TEME</REF_FRAME><TIME_SYSTEM>UTC</TIME_SYSTEM><MEAN_ELEMENT_THEORY>SGP4</MEAN_ELEMENT_THEORY></metadata><data><meanElements><EPOCH>2023-12-02T22:40:20.204256</EPOCH><MEAN_MOTION>14.44130901</MEAN_MOTION><ECCENTRICITY>.0002473</ECCENTRICITY><INCLINATION>47.0021</INCLINATION><RA_OF_ASC_NODE>279.5297</RA_OF_ASC_NODE><ARG_OF_PERICENTER>313.3047</ARG_OF_PERICENTER><MEAN_ANOMALY>46.7627</MEAN_ANOMALY></meanElements><tleParameters><EPHEMERIS_TYPE>0</EPHEMERIS_TYPE><CLASSIFICATION_TYPE>U</CLASSIFICATION_TYPE><NORAD_CAT_ID>41181</NORAD_CAT_ID><ELEMENT_SET_NO>999</ELEMENT_SET_NO><REV_AT_EPOCH>41945</REV_AT_EPOCH><BSTAR>.26286E-3</BSTAR><MEAN_MOTION_DOT>.752E-5</MEAN_MOTION_DOT><MEAN_MOTION_DDOT>0</MEAN_MOTION_DDOT></tleParameters></data></segment></body></omm>
<omm id="CCSDS_OMM_VERS" version="2.0">
<header><CREATION_DATE/><ORIGINATOR/></header><body><segment><metadata><OBJECT_NAME>ORBCOMM FM110 [+]</OBJECT_NAME><OBJECT_ID>2015-081D</OBJECT_ID><CENTER_NAME>EARTH</CENTER_NAME><REF_FRAME>TEME</REF_FRAME><TIME_SYSTEM>UTC</TIME_SYSTEM><MEAN_ELEMENT_THEORY>SGP4</MEAN_ELEMENT_THEORY></metadata><data><meanElements><EPOCH>2023-12-03T08:11:58.768224</EPOCH><MEAN_MOTION>14.56131057</MEAN_MOTION><ECCENTRICITY>.000106</ECCENTRICITY><INCLINATION>47.0014</INCLINATION><RA_OF_ASC_NODE>55.4253</RA_OF_ASC_NODE><ARG_OF_PERICENTER>141.8925</ARG_OF_PERICENTER><MEAN_ANOMALY>218.2034</MEAN_ANOMALY></meanElements><tleParameters><EPHEMERIS_TYPE>0</EPHEMERIS_TYPE><CLASSIFICATION_TYPE>U</CLASSIFICATION_TYPE><NORAD_CAT_ID>41182</NORAD_CAT_ID><ELEMENT_SET_NO>999</ELEMENT_SET_NO><REV_AT_EPOCH>42240</REV_AT_EPOCH><BSTAR>.51662E-3</BSTAR><MEAN_MOTION_DOT>.2135E-4</MEAN_MOTION_DOT><MEAN_MOTION_DDOT>0</MEAN_MOTION_DDOT></tleParameters></data></segment></body></omm>
<omm id="CCSDS_OMM_VERS" version="2.0">
<header><CREATION_DATE/><ORIGINATOR/></header><body><segment><metadata><OBJECT_NAME>ORBCOMM FM118 [+]</OBJECT_NAME><OBJECT_ID>2015-081E</OBJECT_ID><CENTER_NAME>EARTH</CENTER_NAME><REF_FRAME>TEME</REF_FRAME><TIME_SYSTEM>UTC</TIME_SYSTEM><MEAN_ELEMENT_THEORY>SGP4</MEAN_ELEMENT_THEORY></metadata><data><meanElements><EPOCH>2023-12-03T14:14:25.141920</EPOCH><MEAN_MOTION>14.56127272</MEAN_MOTION><ECCENTRICITY>.0001248</ECCENTRICITY><INCLINATION>47.0038</INCLINATION><RA_OF_ASC_NODE>54.5133</RA_OF_ASC_NODE><ARG_OF_PERICENTER>137.7392</ARG_OF_PERICENTER><MEAN_ANOMALY>222.3589</MEAN_ANOMALY></meanElements><tleParameters><EPHEMERIS_TYPE>0</EPHEMERIS_TYPE><CLASSIFICATION_TYPE>U</CLASSIFICATION_TYPE><NORAD_CAT_ID>41183</NORAD_CAT_ID><ELEMENT_SET_NO>999</ELEMENT_SET_NO><REV_AT_EPOCH>42254</REV_AT_EPOCH><BSTAR>.48528E-3</BSTAR><MEAN_MOTION_DOT>.1995E-4</MEAN_MOTION_DOT><MEAN_MOTION_DDOT>0</MEAN_MOTION_DDOT></tleParameters></data></segment></body></omm>
<omm id="CCSDS_OMM_VERS" version="2.0">
<header><CREATION_DATE/><ORIGINATOR/></header><body><segment><metadata><OBJECT_NAME>ORBCOMM FM112 [+]</OBJECT_NAME><OBJECT_ID>2015-081F</OBJECT_ID><CENTER_NAME>EARTH</CENTER_NAME><REF_FRAME>TEME</REF_FRAME><TIME_SYSTEM>UTC</TIME_SYSTEM><MEAN_ELEMENT_THEORY>SGP4</MEAN_ELEMENT_THEORY></metadata><data><meanElements><EPOCH>2023-12-02T23:13:03.694368</EPOCH><MEAN_MOTION>14.56110317</MEAN_MOTION><ECCENTRICITY>.0002191</ECCENTRICITY><INCLINATION>46.9996</INCLINATION><RA_OF_ASC_NODE>326.2082</RA_OF_ASC_NODE><ARG_OF_PERICENTER>317.1556</ARG_OF_PERICENTER><MEAN_ANOMALY>42.9158</MEAN_ANOMALY></meanElements><tleParameters><EPHEMERIS_TYPE>0</EPHEMERIS_TYPE><CLASSIFICATION_TYPE>U</CLASSIFICATION_TYPE><NORAD_CAT_ID>41184</NORAD_CAT_ID><ELEMENT_SET_NO>999</ELEMENT_SET_NO><REV_AT_EPOCH>42367</REV_AT_EPOCH><BSTAR>.43634E-3</BSTAR><MEAN_MOTION_DOT>.1776E-4</MEAN_MOTION_DOT><MEAN_MOTION_DDOT>0</MEAN_MOTION_DDOT></tleParameters></data></segment></body></omm>
<omm id="CCSDS_OMM_VERS" version="2.0">
<header><CREATION_DATE/><ORIGINATOR/></header><body><segment><metadata><OBJECT_NAME>ORBCOMM FM113 [+]</OBJECT_NAME><OBJECT_ID>2015-081G</OBJECT_ID><CENTER_NAME>EARTH</CENTER_NAME><REF_FRAME>TEME</REF_FRAME><TIME_SYSTEM>UTC</TIME_SYSTEM><MEAN_ELEMENT_THEORY>SGP4</MEAN_ELEMENT_THEORY></metadata><data><meanElements><EPOCH>2023-12-03T00:17:53.906208</EPOCH><MEAN_MOTION>14.56074875</MEAN_MOTION><ECCENTRICITY>.0001425</ECCENTRICITY><INCLINATION>47.0022</INCLINATION><RA_OF_ASC_NODE>326.2319</RA_OF_ASC_NODE><ARG_OF_PERICENTER>328.9955</ARG_OF_PERICENTER><MEAN_ANOMALY>31.0846</MEAN_ANOMALY></meanElements><tleParameters><EPHEMERIS_TYPE>0</EPHEMERIS_TYPE><CLASSIFICATION_TYPE>U</CLASSIFICATION_TYPE><NORAD_CAT_ID>41185</NORAD_CAT_ID><ELEMENT_SET_NO>999</ELEMENT_SET_NO><REV_AT_EPOCH>42366</REV_AT_EPOCH><BSTAR>.40105E-3</BSTAR><MEAN_MOTION_DOT>.1618E-4</MEAN_MOTION_DOT><MEAN_MOTION_DDOT>0</MEAN_MOTION_DDOT></tleParameters></data></segment></body></omm>

</ndm>
