ORBCOMM FM103 [+]       
1 40091U 14040F   23337.46690383  .00001518  00000+0  37845-3 0  9994
2 40091  47.0041 146.0760 0002432 230.3969 129.6701 14.56109986482187
ORBCOMM FM114 [+]       
1 41179U 15081A   23337.57048615  .00001434  00000+0  35937-3 0  9992
2 41179  47.0032  54.9274 0002661 280.1628  79.8956 14.56128523422563
ORBCOMM FM119 [-]       
1 41180U 15081B   23337.33241287  .00001562  00000+0  38830-3 0  9995
2 41180  47.0024 325.2403 0001928 330.5166  29.5610 14.56107387423785
ORBCOMM FM105 [-]       
1 41181U 15081C   23336.94467829  .00000752  00000+0  26286-3 0  9996
2 41181  47.0021 279.5297 0002473 313.3047  46.7627 14.44130901419451
ORBCOMM FM110 [+]       
1 41182U 15081D   23337.34165241  .00002135  00000+0  51662-3 0  9998
2 41182  47.0014  55.4253 0001060 141.8925 218.2034 14.56131057422400
ORBCOMM FM118 [+]       
1 41183U 15081E   23337.59334655  .00001995  00000+0  48528-3 0  9993
2 41183  47.0038  54.5133 0001248 137.7392 222.3589 14.56127272422544
ORBCOMM FM112 [+]       
1 41184U 15081F   23336.96740387  .00001776  00000+0  43634-3 0  9997
2 41184  46.9996 326.2082 0002191 317.1556  42.9158 14.56110317423677
ORBCOMM FM113 [+]       
1 41185U 15081G   23337.01242947  .00001618  00000+0  40105-3 0  9999
2 41185  47.0022 326.2319 0001425 328.9955  31.0846 14.56074875423665
